{
  "type": "FeatureCollection",
  "name": "Dwarka_Mor_Najafgarh_Catchment_Boundary",
  "crs": {
    "type": "name",
    "properties": {
      "name": "urn:ogc:def:crs:OGC:1.3:CRS84"
    }
  },
  "features": [
    {
      "type": "Feature",
      "properties": {
        "catchment_name": "Dwarka Mor Catchment & Najafgarh Drain Basin",
        "district": "South West Delhi",
        "state": "Delhi",
        "country": "India",
        "area_sqkm": 14.8,
        "pilot_code": "DELHI-DWK-01",
        "sponsoring_agency": "Ministry of Earth Sciences (MoES)",
        "executing_agency": "National Centre for Medium Range Weather Forecasting (NCMRWF)",
        "radar_station": "IMD Palam S-Band Radar (28.5667° N, 77.1000° E)",
        "critical_junction": "Dwarka Mor Metro Crossing (28.6186° N, 77.0319° E)",
        "najafgarh_drain_fsl_m": 211.5
      },
      "geometry": {
        "type": "Polygon",
        "coordinates": [
          [
            [77.0150, 28.6280],
            [77.0500, 28.6280],
            [77.0500, 28.5900],
            [77.0150, 28.5900],
            [77.0150, 28.6280]
          ]
        ]
      }
    }
  ]
}
