{
  "type": "FeatureCollection",
  "features": [
    {
      "type": "Feature",
      "properties": {
        "waterway": "drain"
      },
      "geometry": {
        "type": "LineString",
        "coordinates": [
          [
            77.2416725,
            28.6265835
          ],
          [
            77.2434862,
            28.6257098
          ],
          [
            77.2445811,
            28.6247779
          ],
          [
            77.2455875,
            28.6239479
          ],
          [
            77.2461515,
            28.6233606
          ],
          [
            77.2473514,
            28.6214336
          ],
          [
            77.2474731,
            28.6212055
          ],
          [
            77.2476445,
            28.621123
          ],
          [
            77.2481103,
            28.6210318
          ]
        ]
      }
    },
    {
      "type": "Feature",
      "properties": {
        "natural": "water",
        "water": "pond"
      },
      "geometry": {
        "type": "LineString",
        "coordinates": [
          [
            77.2382546,
            28.6263864
          ],
          [
            77.2383228,
            28.6264332
          ],
          [
            77.2383362,
            28.6264424
          ],
          [
            77.2383005,
            28.6264894
          ],
          [
            77.2382189,
            28.6264356
          ],
          [
            77.2382546,
            28.6263864
          ]
        ]
      }
    }
  ]
}