{
  "type": "FeatureCollection",
  "features": [
    {
      "type": "Feature",
      "properties": {
        "waterway": "canal"
      },
      "geometry": {
        "type": "LineString",
        "coordinates": [
          [
            77.0719779,
            28.5771024
          ],
          [
            77.0693202,
            28.5739978
          ],
          [
            77.0683275,
            28.5738876
          ],
          [
            77.0680745,
            28.5738473
          ],
          [
            77.0678459,
            28.5737921
          ],
          [
            77.0676231,
            28.5736917
          ],
          [
            77.0674257,
            28.5735681
          ],
          [
            77.0664141,
            28.5723454
          ],
          [
            77.0663476,
            28.57234
          ]
        ]
      }
    },
    {
      "type": "Feature",
      "properties": {
        "layer": "-1",
        "tunnel": "yes",
        "waterway": "canal"
      },
      "geometry": {
        "type": "LineString",
        "coordinates": [
          [
            77.0663476,
            28.57234
          ],
          [
            77.0654035,
            28.5725268
          ],
          [
            77.0648,
            28.5718519
          ]
        ]
      }
    },
    {
      "type": "Feature",
      "properties": {
        "waterway": "canal",
        "width": "3"
      },
      "geometry": {
        "type": "LineString",
        "coordinates": [
          [
            77.0800095,
            28.5931311
          ],
          [
            77.0796152,
            28.5935275
          ],
          [
            77.0794152,
            28.5938336
          ],
          [
            77.0792495,
            28.5940894
          ],
          [
            77.0791867,
            28.5943202
          ],
          [
            77.0791581,
            28.5945159
          ],
          [
            77.0790438,
            28.5948069
          ],
          [
            77.0789524,
            28.5950528
          ],
          [
            77.0788952,
            28.5952434
          ],
          [
            77.0787752,
            28.5954241
          ],
          [
            77.0786266,
            28.5955495
          ],
          [
            77.0781638,
            28.5959007
          ],
          [
            77.0778666,
            28.5961416
          ],
          [
            77.0776781,
            28.5963222
          ],
          [
            77.0773752,
            28.5965379
          ],
          [
            77.0764437,
            28.5972855
          ],
          [
            77.0760837,
            28.5975564
          ],
          [
            77.075638,
            28.5978926
          ],
          [
            77.0753123,
            28.5981535
          ],
          [
            77.0750551,
            28.5983492
          ],
          [
            77.074918,
            28.5984696
          ],
          [
            77.074518,
            28.5987054
          ],
          [
            77.0741751,
            28.5990114
          ],
          [
            77.072878,
            28.5999797
          ],
          [
            77.0724437,
            28.6003159
          ],
          [
            77.0717979,
            28.6007975
          ],
          [
            77.0716894,
            28.6008778
          ],
          [
            77.0715408,
            28.6010384
          ],
          [
            77.0714265,
            28.6012039
          ],
          [
            77.0712493,
            28.6014096
          ],
          [
            77.0711293,
            28.6015551
          ],
          [
            77.0710493,
            28.6016956
          ],
          [
            77.0709579,
            28.6019565
          ],
          [
            77.0708093,
            28.6023829
          ],
          [
            77.0706722,
            28.6028244
          ],
          [
            77.0705922,
            28.6029649
          ],
          [
            77.0705298,
            28.6030758
          ]
        ]
      }
    },
    {
      "type": "Feature",
      "properties": {
        "waterway": "drain"
      },
      "geometry": {
        "type": "LineString",
        "coordinates": [
          [
            77.1022737,
            28.5971479
          ],
          [
            77.1012298,
            28.5977404
          ],
          [
            77.1007279,
            28.5978944
          ],
          [
            77.1003482,
            28.5981661
          ],
          [
            77.1001838,
            28.5983574
          ],
          [
            77.100115,
            28.5987507
          ],
          [
            77.1001953,
            28.5990412
          ],
          [
            77.1004421,
            28.5996457
          ],
          [
            77.0986885,
            28.6006721
          ],
          [
            77.098013,
            28.599965
          ],
          [
            77.0976291,
            28.5996973
          ],
          [
            77.0972356,
            28.5994813
          ],
          [
            77.0958047,
            28.5987903
          ],
          [
            77.0955361,
            28.5987348
          ],
          [
            77.0951422,
            28.5986534
          ],
          [
            77.0947135,
            28.5987675
          ],
          [
            77.0934665,
            28.5995886
          ],
          [
            77.0921934,
            28.600387
          ],
          [
            77.091505,
            28.6006037
          ],
          [
            77.0908295,
            28.6008204
          ],
          [
            77.0903878,
            28.6007976
          ],
          [
            77.090115,
            28.6005695
          ],
          [
            77.0885952,
            28.6014591
          ],
          [
            77.087543,
            28.6014249
          ],
          [
            77.0872572,
            28.6015047
          ],
          [
            77.0865947,
            28.6018468
          ],
          [
            77.086179,
            28.6019609
          ],
          [
            77.0858673,
            28.6019951
          ],
          [
            77.0853217,
            28.6029873
          ],
          [
            77.0850099,
            28.6032268
          ],
          [
            77.0833954,
            28.6041084
          ]
        ]
      }
    },
    {
      "type": "Feature",
      "properties": {
        "layer": "-1",
        "tunnel": "culvert",
        "waterway": "drain"
      },
      "geometry": {
        "type": "LineString",
        "coordinates": [
          [
            77.0648,
            28.5718519
          ],
          [
            77.0633848,
            28.5702066
          ],
          [
            77.0608743,
            28.5671826
          ],
          [
            77.0603772,
            28.5667561
          ],
          [
            77.0599715,
            28.5663746
          ],
          [
            77.0597486,
            28.5661086
          ],
          [
            77.0596057,
            28.5660233
          ],
          [
            77.0594115,
            28.5660283
          ],
          [
            77.0592857,
            28.5660886
          ],
          [
            77.0590172,
            28.5662743
          ],
          [
            77.0589086,
            28.5663144
          ],
          [
            77.0587268,
            28.5663594
          ],
          [
            77.0585348,
            28.5664526
          ],
          [
            77.0578,
            28.5669116
          ],
          [
            77.0560578,
            28.568065
          ],
          [
            77.0541587,
            28.569368
          ],
          [
            77.053864,
            28.5692896
          ],
          [
            77.0535885,
            28.5690496
          ],
          [
            77.0534913,
            28.5689994
          ],
          [
            77.0531313,
            28.5689894
          ],
          [
            77.0522342,
            28.5689944
          ],
          [
            77.0515884,
            28.5689291
          ],
          [
            77.0512799,
            28.5687685
          ],
          [
            77.0510456,
            28.5686682
          ],
          [
            77.0509084,
            28.5687284
          ],
          [
            77.0504684,
            28.5690345
          ],
          [
            77.050337,
            28.5690245
          ],
          [
            77.0500294,
            28.5689129
          ],
          [
            77.0490822,
            28.5681208
          ],
          [
            77.0487555,
            28.5679022
          ],
          [
            77.0482701,
            28.5677082
          ],
          [
            77.0450092,
            28.5668993
          ],
          [
            77.0440477,
            28.5667353
          ],
          [
            77.0432729,
            28.5667189
          ],
          [
            77.0404452,
            28.566986
          ],
          [
            77.0393088,
            28.5670933
          ],
          [
            77.035074,
            28.5674841
          ],
          [
            77.0343739,
            28.5675606
          ],
          [
            77.0341281,
            28.5677546
          ],
          [
            77.0312717,
            28.5680771
          ],
          [
            77.0302727,
            28.568608
          ],
          [
            77.0298643,
            28.5688195
          ]
        ]
      }
    },
    {
      "type": "Feature",
      "properties": {
        "natural": "water",
        "water": "basin"
      },
      "geometry": {
        "type": "LineString",
        "coordinates": [
          [
            77.0736056,
            28.5606317
          ],
          [
            77.0735107,
            28.5606313
          ],
          [
            77.0734228,
            28.5606628
          ],
          [
            77.0733553,
            28.5607214
          ],
          [
            77.0733185,
            28.5607983
          ],
          [
            77.073318,
            28.5608816
          ],
          [
            77.0733539,
            28.5609588
          ],
          [
            77.0734207,
            28.5610181
          ],
          [
            77.0735082,
            28.5610504
          ],
          [
            77.0736031,
            28.5610509
          ],
          [
            77.073691,
            28.5610194
          ],
          [
            77.0737585,
            28.5609607
          ],
          [
            77.0737952,
            28.5608838
          ],
          [
            77.0737957,
            28.5608005
          ],
          [
            77.0737599,
            28.5607233
          ],
          [
            77.0736931,
            28.560664
          ],
          [
            77.0736056,
            28.5606317
          ]
        ]
      }
    },
    {
      "type": "Feature",
      "properties": {
        "name": "Public Park",
        "natural": "water",
        "water": "lake"
      },
      "geometry": {
        "type": "LineString",
        "coordinates": [
          [
            77.0712097,
            28.5986767
          ],
          [
            77.0714431,
            28.5987997
          ],
          [
            77.0713787,
            28.5990947
          ],
          [
            77.0707993,
            28.5988827
          ],
          [
            77.0708356,
            28.5987509
          ],
          [
            77.0707926,
            28.5987225
          ],
          [
            77.0708422,
            28.5986731
          ],
          [
            77.0708879,
            28.5986425
          ],
          [
            77.0709563,
            28.598652
          ],
          [
            77.0712097,
            28.5986767
          ]
        ]
      }
    },
    {
      "type": "Feature",
      "properties": {
        "waterway": "drain"
      },
      "geometry": {
        "type": "LineString",
        "coordinates": [
          [
            77.0816635,
            28.5657966
          ],
          [
            77.0789856,
            28.5670987
          ],
          [
            77.0788751,
            28.567128
          ],
          [
            77.078746,
            28.5671383
          ],
          [
            77.0786283,
            28.5671113
          ],
          [
            77.0785246,
            28.5670583
          ],
          [
            77.0784667,
            28.5670167
          ],
          [
            77.0783778,
            28.5669837
          ],
          [
            77.0783082,
            28.5669791
          ],
          [
            77.0782337,
            28.56699
          ],
          [
            77.0781613,
            28.5670179
          ],
          [
            77.0777218,
            28.5673035
          ]
        ]
      }
    },
    {
      "type": "Feature",
      "properties": {
        "layer": "-1",
        "tunnel": "culvert",
        "waterway": "drain"
      },
      "geometry": {
        "type": "LineString",
        "coordinates": [
          [
            77.0832372,
            28.5647713
          ],
          [
            77.0822441,
            28.5649988
          ]
        ]
      }
    },
    {
      "type": "Feature",
      "properties": {
        "waterway": "drain"
      },
      "geometry": {
        "type": "LineString",
        "coordinates": [
          [
            77.0822441,
            28.5649988
          ],
          [
            77.0821672,
            28.5650379
          ]
        ]
      }
    },
    {
      "type": "Feature",
      "properties": {
        "layer": "-1",
        "tunnel": "culvert",
        "waterway": "drain"
      },
      "geometry": {
        "type": "LineString",
        "coordinates": [
          [
            77.0821672,
            28.5650379
          ],
          [
            77.0816635,
            28.5657966
          ]
        ]
      }
    },
    {
      "type": "Feature",
      "properties": {
        "waterway": "drain"
      },
      "geometry": {
        "type": "LineString",
        "coordinates": [
          [
            77.0866809,
            28.5644221
          ],
          [
            77.0842076,
            28.5649847
          ],
          [
            77.0841645,
            28.5649481
          ],
          [
            77.0837353,
            28.5647395
          ],
          [
            77.0836626,
            28.5647184
          ],
          [
            77.0835826,
            28.5647086
          ],
          [
            77.0835037,
            28.5647149
          ],
          [
            77.0832372,
            28.5647713
          ]
        ]
      }
    },
    {
      "type": "Feature",
      "properties": {
        "layer": "-1",
        "tunnel": "culvert",
        "waterway": "drain"
      },
      "geometry": {
        "type": "LineString",
        "coordinates": [
          [
            77.0868259,
            28.5643891
          ],
          [
            77.0866809,
            28.5644221
          ]
        ]
      }
    },
    {
      "type": "Feature",
      "properties": {
        "natural": "water",
        "water": "stream"
      },
      "geometry": {
        "type": "LineString",
        "coordinates": [
          [
            77.0866963,
            28.5644516
          ],
          [
            77.0866778,
            28.564393
          ],
          [
            77.0842648,
            28.5649467
          ],
          [
            77.0842185,
            28.5649157
          ],
          [
            77.0837698,
            28.5646869
          ],
          [
            77.0837132,
            28.564665
          ],
          [
            77.0836465,
            28.5646536
          ],
          [
            77.0835844,
            28.5646487
          ],
          [
            77.0835204,
            28.5646527
          ],
          [
            77.0833721,
            28.5646829
          ],
          [
            77.0833684,
            28.5646291
          ],
          [
            77.0832887,
            28.5646462
          ],
          [
            77.0832924,
            28.5647008
          ],
          [
            77.083196,
            28.5647179
          ],
          [
            77.0832256,
            28.5648416
          ],
          [
            77.0834314,
            28.5647936
          ],
          [
            77.0835278,
            28.5647749
          ],
          [
            77.0835992,
            28.5647724
          ],
          [
            77.0836548,
            28.5647822
          ],
          [
            77.0837188,
            28.5648026
          ],
          [
            77.0841109,
            28.5649939
          ],
          [
            77.0841396,
            28.5650108
          ],
          [
            77.0841675,
            28.5650378
          ],
          [
            77.0841823,
            28.565068
          ],
          [
            77.0842185,
            28.565164
          ],
          [
            77.0843334,
            28.5651429
          ],
          [
            77.084313,
            28.5650484
          ],
          [
            77.0843,
            28.5650151
          ],
          [
            77.0842889,
            28.5649898
          ],
          [
            77.0866963,
            28.5644516
          ]
        ]
      }
    },
    {
      "type": "Feature",
      "properties": {
        "layer": "-1",
        "tunnel": "culvert",
        "waterway": "drain"
      },
      "geometry": {
        "type": "LineString",
        "coordinates": [
          [
            77.0844513,
            28.5657194
          ],
          [
            77.0842742,
            28.5651381
          ]
        ]
      }
    },
    {
      "type": "Feature",
      "properties": {
        "waterway": "drain"
      },
      "geometry": {
        "type": "LineString",
        "coordinates": [
          [
            77.0842742,
            28.5651381
          ],
          [
            77.0842428,
            28.5650371
          ],
          [
            77.0842076,
            28.5649847
          ]
        ]
      }
    },
    {
      "type": "Feature",
      "properties": {
        "waterway": "drain"
      },
      "geometry": {
        "type": "LineString",
        "coordinates": [
          [
            77.0851156,
            28.5658131
          ],
          [
            77.084669,
            28.5659165
          ],
          [
            77.08461,
            28.5659163
          ],
          [
            77.0845605,
            28.5659035
          ],
          [
            77.0845171,
            28.5658783
          ],
          [
            77.0844873,
            28.5658373
          ],
          [
            77.0844513,
            28.5657194
          ]
        ]
      }
    },
    {
      "type": "Feature",
      "properties": {
        "layer": "-1",
        "tunnel": "culvert",
        "waterway": "drain"
      },
      "geometry": {
        "type": "LineString",
        "coordinates": [
          [
            77.0858631,
            28.5656401
          ],
          [
            77.0851156,
            28.5658131
          ]
        ]
      }
    },
    {
      "type": "Feature",
      "properties": {
        "layer": "-1",
        "tunnel": "culvert",
        "waterway": "drain"
      },
      "geometry": {
        "type": "LineString",
        "coordinates": [
          [
            77.0911524,
            28.5615278
          ],
          [
            77.0914669,
            28.5625769
          ]
        ]
      }
    },
    {
      "type": "Feature",
      "properties": {
        "waterway": "drain"
      },
      "geometry": {
        "type": "LineString",
        "coordinates": [
          [
            77.0906718,
            28.5635056
          ],
          [
            77.0868259,
            28.5643891
          ]
        ]
      }
    },
    {
      "type": "Feature",
      "properties": {
        "layer": "-1",
        "tunnel": "culvert",
        "waterway": "drain"
      },
      "geometry": {
        "type": "LineString",
        "coordinates": [
          [
            77.0913055,
            28.5633477
          ],
          [
            77.0906718,
            28.5635056
          ]
        ]
      }
    },
    {
      "type": "Feature",
      "properties": {
        "waterway": "drain"
      },
      "geometry": {
        "type": "LineString",
        "coordinates": [
          [
            77.0915282,
            28.5627815
          ],
          [
            77.0916728,
            28.5632639
          ]
        ]
      }
    },
    {
      "type": "Feature",
      "properties": {
        "layer": "-1",
        "tunnel": "culvert",
        "waterway": "drain"
      },
      "geometry": {
        "type": "LineString",
        "coordinates": [
          [
            77.0914772,
            28.5626114
          ],
          [
            77.0915282,
            28.5627815
          ]
        ]
      }
    },
    {
      "type": "Feature",
      "properties": {
        "waterway": "drain"
      },
      "geometry": {
        "type": "LineString",
        "coordinates": [
          [
            77.0914669,
            28.5625769
          ],
          [
            77.0914772,
            28.5626114
          ]
        ]
      }
    },
    {
      "type": "Feature",
      "properties": {
        "layer": "-1",
        "tunnel": "culvert",
        "waterway": "drain"
      },
      "geometry": {
        "type": "LineString",
        "coordinates": [
          [
            77.0909414,
            28.5608236
          ],
          [
            77.0911088,
            28.5613821
          ]
        ]
      }
    },
    {
      "type": "Feature",
      "properties": {
        "waterway": "drain"
      },
      "geometry": {
        "type": "LineString",
        "coordinates": [
          [
            77.0911088,
            28.5613821
          ],
          [
            77.0911524,
            28.5615278
          ]
        ]
      }
    },
    {
      "type": "Feature",
      "properties": {
        "waterway": "drain"
      },
      "geometry": {
        "type": "LineString",
        "coordinates": [
          [
            77.0907544,
            28.5605274
          ],
          [
            77.0908943,
            28.5606881
          ],
          [
            77.0909316,
            28.5607956
          ],
          [
            77.0909414,
            28.5608236
          ]
        ]
      }
    },
    {
      "type": "Feature",
      "properties": {
        "waterway": "drain"
      },
      "geometry": {
        "type": "LineString",
        "coordinates": [
          [
            77.0914312,
            28.5603587
          ],
          [
            77.0914806,
            28.5605354
          ],
          [
            77.0914828,
            28.5605741
          ],
          [
            77.0914663,
            28.560605
          ],
          [
            77.0914421,
            28.5606253
          ],
          [
            77.0914057,
            28.5606398
          ]
        ]
      }
    },
    {
      "type": "Feature",
      "properties": {
        "waterway": "drain"
      },
      "geometry": {
        "type": "LineString",
        "coordinates": [
          [
            77.0912176,
            28.5606877
          ],
          [
            77.0911702,
            28.5606998
          ],
          [
            77.0909456,
            28.5607761
          ],
          [
            77.0909316,
            28.5607956
          ]
        ]
      }
    },
    {
      "type": "Feature",
      "properties": {
        "layer": "-1",
        "tunnel": "culvert",
        "waterway": "drain"
      },
      "geometry": {
        "type": "LineString",
        "coordinates": [
          [
            77.0914057,
            28.5606398
          ],
          [
            77.0912176,
            28.5606877
          ]
        ]
      }
    },
    {
      "type": "Feature",
      "properties": {
        "natural": "water",
        "water": "stream"
      },
      "geometry": {
        "type": "LineString",
        "coordinates": [
          [
            77.0912959,
            28.5633707
          ],
          [
            77.0919912,
            28.5632095
          ],
          [
            77.0919832,
            28.5631735
          ],
          [
            77.091683,
            28.563242
          ],
          [
            77.0915423,
            28.5627666
          ],
          [
            77.0915072,
            28.5627752
          ],
          [
            77.0916502,
            28.5632495
          ],
          [
            77.0912839,
            28.5633332
          ],
          [
            77.0912959,
            28.5633707
          ]
        ]
      }
    },
    {
      "type": "Feature",
      "properties": {
        "waterway": "drain"
      },
      "geometry": {
        "type": "LineString",
        "coordinates": [
          [
            77.0919769,
            28.5631947
          ],
          [
            77.0916728,
            28.5632639
          ],
          [
            77.0913055,
            28.5633477
          ]
        ]
      }
    },
    {
      "type": "Feature",
      "properties": {
        "layer": "-1",
        "tunnel": "culvert",
        "waterway": "drain"
      },
      "geometry": {
        "type": "LineString",
        "coordinates": [
          [
            77.0921136,
            28.5631636
          ],
          [
            77.0919769,
            28.5631947
          ]
        ]
      }
    },
    {
      "type": "Feature",
      "properties": {
        "natural": "water",
        "water": "stream"
      },
      "geometry": {
        "type": "LineString",
        "coordinates": [
          [
            77.0914647,
            28.5626256
          ],
          [
            77.0914954,
            28.5626173
          ],
          [
            77.0914803,
            28.5625655
          ],
          [
            77.091448,
            28.562573
          ],
          [
            77.0914647,
            28.5626256
          ]
        ]
      }
    },
    {
      "type": "Feature",
      "properties": {
        "waterway": "drain"
      },
      "geometry": {
        "type": "LineString",
        "coordinates": [
          [
            77.0968585,
            28.5620704
          ],
          [
            77.0921136,
            28.5631636
          ]
        ]
      }
    },
    {
      "type": "Feature",
      "properties": {
        "layer": "-1",
        "tunnel": "culvert",
        "waterway": "drain"
      },
      "geometry": {
        "type": "LineString",
        "coordinates": [
          [
            77.0983718,
            28.5617524
          ],
          [
            77.0982229,
            28.5617861
          ]
        ]
      }
    },
    {
      "type": "Feature",
      "properties": {
        "layer": "-1",
        "tunnel": "culvert",
        "waterway": "drain"
      },
      "geometry": {
        "type": "LineString",
        "coordinates": [
          [
            77.0969603,
            28.5594315
          ],
          [
            77.0977249,
            28.5613669
          ]
        ]
      }
    },
    {
      "type": "Feature",
      "properties": {
        "waterway": "drain"
      },
      "geometry": {
        "type": "LineString",
        "coordinates": [
          [
            77.0898989,
            28.5646766
          ],
          [
            77.0870943,
            28.5653325
          ]
        ]
      }
    },
    {
      "type": "Feature",
      "properties": {
        "layer": "-1",
        "tunnel": "culvert",
        "waterway": "drain"
      },
      "geometry": {
        "type": "LineString",
        "coordinates": [
          [
            77.0913992,
            28.5643202
          ],
          [
            77.0898989,
            28.5646766
          ]
        ]
      }
    },
    {
      "type": "Feature",
      "properties": {
        "waterway": "drain"
      },
      "geometry": {
        "type": "LineString",
        "coordinates": [
          [
            77.0918554,
            28.5642145
          ],
          [
            77.0913992,
            28.5643202
          ]
        ]
      }
    },
    {
      "type": "Feature",
      "properties": {
        "layer": "-1",
        "tunnel": "culvert",
        "waterway": "drain"
      },
      "geometry": {
        "type": "LineString",
        "coordinates": [
          [
            77.093512,
            28.5638305
          ],
          [
            77.0918554,
            28.5642145
          ]
        ]
      }
    },
    {
      "type": "Feature",
      "properties": {
        "natural": "water",
        "water": "stream"
      },
      "geometry": {
        "type": "LineString",
        "coordinates": [
          [
            77.0844896,
            28.5656946
          ],
          [
            77.0843914,
            28.565715
          ],
          [
            77.0844644,
            28.565854
          ],
          [
            77.0844893,
            28.565892
          ],
          [
            77.0845279,
            28.565921
          ],
          [
            77.0845733,
            28.5659384
          ],
          [
            77.0846138,
            28.5659413
          ],
          [
            77.0846834,
            28.5659356
          ],
          [
            77.0851395,
            28.5658355
          ],
          [
            77.0851218,
            28.5657825
          ],
          [
            77.0846659,
            28.5658845
          ],
          [
            77.0846166,
            28.5658888
          ],
          [
            77.0845823,
            28.5658806
          ],
          [
            77.0845469,
            28.5658626
          ],
          [
            77.0845253,
            28.5658354
          ],
          [
            77.0844896,
            28.5656946
          ]
        ]
      }
    },
    {
      "type": "Feature",
      "properties": {
        "waterway": "drain"
      },
      "geometry": {
        "type": "LineString",
        "coordinates": [
          [
            77.0869245,
            28.5653621
          ],
          [
            77.0867737,
            28.5654293
          ],
          [
            77.0858631,
            28.5656401
          ]
        ]
      }
    },
    {
      "type": "Feature",
      "properties": {
        "layer": "-1",
        "tunnel": "culvert",
        "waterway": "drain"
      },
      "geometry": {
        "type": "LineString",
        "coordinates": [
          [
            77.0870943,
            28.5653325
          ],
          [
            77.0869245,
            28.5653621
          ]
        ]
      }
    },
    {
      "type": "Feature",
      "properties": {
        "waterway": "drain"
      },
      "geometry": {
        "type": "LineString",
        "coordinates": [
          [
            77.097978,
            28.5628296
          ],
          [
            77.093512,
            28.5638305
          ]
        ]
      }
    },
    {
      "type": "Feature",
      "properties": {
        "layer": "-1",
        "tunnel": "culvert",
        "waterway": "drain"
      },
      "geometry": {
        "type": "LineString",
        "coordinates": [
          [
            77.0997437,
            28.5624209
          ],
          [
            77.097978,
            28.5628296
          ]
        ]
      }
    },
    {
      "type": "Feature",
      "properties": {
        "waterway": "drain"
      },
      "geometry": {
        "type": "LineString",
        "coordinates": [
          [
            77.0955513,
            28.5658691
          ],
          [
            77.0907234,
            28.56699
          ]
        ]
      }
    },
    {
      "type": "Feature",
      "properties": {
        "waterway": "drain"
      },
      "geometry": {
        "type": "LineString",
        "coordinates": [
          [
            77.0862306,
            28.5722514
          ],
          [
            77.0847108,
            28.5719951
          ],
          [
            77.0846189,
            28.5719874
          ],
          [
            77.0845401,
            28.5719989
          ],
          [
            77.0824912,
            28.5725468
          ],
          [
            77.0824299,
            28.5725545
          ],
          [
            77.082373,
            28.5725468
          ],
          [
            77.0823139,
            28.5725199
          ],
          [
            77.0808583,
            28.5708282
          ],
          [
            77.0807641,
            28.5706898
          ],
          [
            77.0806919,
            28.5705571
          ],
          [
            77.0806284,
            28.5703918
          ],
          [
            77.0805057,
            28.5698022
          ]
        ]
      }
    },
    {
      "type": "Feature",
      "properties": {
        "waterway": "drain"
      },
      "geometry": {
        "type": "LineString",
        "coordinates": [
          [
            77.0783778,
            28.5669837
          ],
          [
            77.0782692,
            28.5669419
          ],
          [
            77.0781947,
            28.5669338
          ],
          [
            77.0781268,
            28.5669396
          ],
          [
            77.0780653,
            28.5669648
          ],
          [
            77.0776597,
            28.5672223
          ]
        ]
      }
    },
    {
      "type": "Feature",
      "properties": {
        "waterway": "drain"
      },
      "geometry": {
        "type": "LineString",
        "coordinates": [
          [
            77.0772741,
            28.5674649
          ],
          [
            77.0771699,
            28.5675308
          ]
        ]
      }
    },
    {
      "type": "Feature",
      "properties": {
        "waterway": "drain"
      },
      "geometry": {
        "type": "LineString",
        "coordinates": [
          [
            77.0773486,
            28.5675445
          ],
          [
            77.0772372,
            28.5676166
          ]
        ]
      }
    },
    {
      "type": "Feature",
      "properties": {
        "layer": "-1",
        "tunnel": "culvert",
        "waterway": "drain"
      },
      "geometry": {
        "type": "LineString",
        "coordinates": [
          [
            77.0777218,
            28.5673035
          ],
          [
            77.0773486,
            28.5675445
          ]
        ]
      }
    },
    {
      "type": "Feature",
      "properties": {
        "layer": "-1",
        "tunnel": "culvert",
        "waterway": "drain"
      },
      "geometry": {
        "type": "LineString",
        "coordinates": [
          [
            77.0776597,
            28.5672223
          ],
          [
            77.0772741,
            28.5674649
          ]
        ]
      }
    },
    {
      "type": "Feature",
      "properties": {
        "waterway": "drain"
      },
      "geometry": {
        "type": "LineString",
        "coordinates": [
          [
            77.0787411,
            28.5673628
          ],
          [
            77.0785246,
            28.5670583
          ]
        ]
      }
    },
    {
      "type": "Feature",
      "properties": {
        "layer": "-1",
        "tunnel": "culvert",
        "waterway": "drain"
      },
      "geometry": {
        "type": "LineString",
        "coordinates": [
          [
            77.0788246,
            28.5674796
          ],
          [
            77.0787411,
            28.5673628
          ]
        ]
      }
    },
    {
      "type": "Feature",
      "properties": {
        "natural": "water",
        "water": "stream"
      },
      "geometry": {
        "type": "LineString",
        "coordinates": [
          [
            77.0822353,
            28.5650869
          ],
          [
            77.0822804,
            28.5650531
          ],
          [
            77.0822463,
            28.5649419
          ],
          [
            77.0821527,
            28.5649642
          ],
          [
            77.0820812,
            28.5650144
          ],
          [
            77.0822353,
            28.5650869
          ]
        ]
      }
    },
    {
      "type": "Feature",
      "properties": {
        "natural": "water",
        "water": "stream"
      },
      "geometry": {
        "type": "LineString",
        "coordinates": [
          [
            77.0817745,
            28.565832
          ],
          [
            77.0816149,
            28.5657537
          ],
          [
            77.0807255,
            28.5661816
          ],
          [
            77.079072,
            28.5669772
          ],
          [
            77.0789421,
            28.5670284
          ],
          [
            77.078843,
            28.5670439
          ],
          [
            77.0787285,
            28.567041
          ],
          [
            77.0786328,
            28.5670158
          ],
          [
            77.078548,
            28.5669685
          ],
          [
            77.0784489,
            28.5669182
          ],
          [
            77.0783509,
            28.5668844
          ],
          [
            77.0782596,
            28.5668766
          ],
          [
            77.0781803,
            28.5668844
          ],
          [
            77.0780923,
            28.5669037
          ],
          [
            77.0779669,
            28.5669701
          ],
          [
            77.0776101,
            28.5671982
          ],
          [
            77.077739,
            28.5673492
          ],
          [
            77.0781033,
            28.5671096
          ],
          [
            77.0781814,
            28.5670748
          ],
          [
            77.078264,
            28.5670574
          ],
          [
            77.0783366,
            28.5670661
          ],
          [
            77.0784027,
            28.5670941
          ],
          [
            77.078472,
            28.5671386
          ],
          [
            77.0785469,
            28.5672082
          ],
          [
            77.0786823,
            28.5674284
          ],
          [
            77.0787188,
            28.5674911
          ],
          [
            77.0788667,
            28.5674107
          ],
          [
            77.0788259,
            28.5673513
          ],
          [
            77.0787296,
            28.5672189
          ],
          [
            77.0788001,
            28.5671792
          ],
          [
            77.0789223,
            28.5671609
          ],
          [
            77.0790357,
            28.5671309
          ],
          [
            77.0791523,
            28.5670903
          ],
          [
            77.0817745,
            28.565832
          ]
        ]
      }
    },
    {
      "type": "Feature",
      "properties": {
        "natural": "water",
        "water": "stream"
      },
      "geometry": {
        "type": "LineString",
        "coordinates": [
          [
            77.0788667,
            28.5674107
          ],
          [
            77.0787188,
            28.5674911
          ],
          [
            77.0790413,
            28.567873
          ],
          [
            77.0793331,
            28.5682261
          ],
          [
            77.0803064,
            28.5693767
          ],
          [
            77.0803854,
            28.5694451
          ],
          [
            77.0804396,
            28.5696836
          ],
          [
            77.0805148,
            28.5696767
          ],
          [
            77.080487,
            28.5695018
          ],
          [
            77.0806013,
            28.5695635
          ],
          [
            77.08071,
            28.569584
          ],
          [
            77.0808124,
            28.569588
          ],
          [
            77.0809615,
            28.5695758
          ],
          [
            77.0815475,
            28.5695022
          ],
          [
            77.0816171,
            28.5694935
          ],
          [
            77.0819913,
            28.5694399
          ],
          [
            77.0823244,
            28.5693656
          ],
          [
            77.082798,
            28.5692538
          ],
          [
            77.0828475,
            28.5693124
          ],
          [
            77.0829106,
            28.5692977
          ],
          [
            77.082862,
            28.5692387
          ],
          [
            77.0860443,
            28.5684875
          ],
          [
            77.0860125,
            28.5683819
          ],
          [
            77.0856458,
            28.5684649
          ],
          [
            77.0822629,
            28.5692297
          ],
          [
            77.0819566,
            28.569294
          ],
          [
            77.0815981,
            28.5693431
          ],
          [
            77.0815245,
            28.5693531
          ],
          [
            77.0808745,
            28.5694435
          ],
          [
            77.0807892,
            28.569449
          ],
          [
            77.08071,
            28.5694425
          ],
          [
            77.0806664,
            28.5694365
          ],
          [
            77.0805999,
            28.5694167
          ],
          [
            77.0805584,
            28.5693913
          ],
          [
            77.0804961,
            28.5693396
          ],
          [
            77.0796878,
            28.5684072
          ],
          [
            77.0788667,
            28.5674107
          ]
        ]
      }
    },
    {
      "type": "Feature",
      "properties": {
        "waterway": "drain"
      },
      "geometry": {
        "type": "LineString",
        "coordinates": [
          [
            77.0815104,
            28.569426
          ],
          [
            77.0808986,
            28.5695075
          ],
          [
            77.0807535,
            28.569513
          ],
          [
            77.0806478,
            28.5695021
          ],
          [
            77.0805531,
            28.5694735
          ],
          [
            77.0804708,
            28.5694176
          ],
          [
            77.0804111,
            28.5693474
          ],
          [
            77.0788246,
            28.5674796
          ]
        ]
      }
    },
    {
      "type": "Feature",
      "properties": {
        "waterway": "drain"
      },
      "geometry": {
        "type": "LineString",
        "coordinates": [
          [
            77.0804798,
            28.5696774
          ],
          [
            77.0804111,
            28.5693474
          ]
        ]
      }
    },
    {
      "type": "Feature",
      "properties": {
        "layer": "-1",
        "tunnel": "culvert",
        "waterway": "drain"
      },
      "geometry": {
        "type": "LineString",
        "coordinates": [
          [
            77.0805057,
            28.5698022
          ],
          [
            77.0804798,
            28.5696774
          ]
        ]
      }
    },
    {
      "type": "Feature",
      "properties": {
        "layer": "-1",
        "tunnel": "culvert",
        "waterway": "drain"
      },
      "geometry": {
        "type": "LineString",
        "coordinates": [
          [
            77.099221,
            28.5650306
          ],
          [
            77.0979402,
            28.5653293
          ]
        ]
      }
    },
    {
      "type": "Feature",
      "properties": {
        "natural": "water",
        "water": "stream"
      },
      "geometry": {
        "type": "LineString",
        "coordinates": [
          [
            77.0906901,
            28.5635231
          ],
          [
            77.0906767,
            28.5634815
          ],
          [
            77.0868073,
            28.5643722
          ],
          [
            77.0868185,
            28.5644126
          ],
          [
            77.0906901,
            28.5635231
          ]
        ]
      }
    },
    {
      "type": "Feature",
      "properties": {
        "natural": "water",
        "water": "stream"
      },
      "geometry": {
        "type": "LineString",
        "coordinates": [
          [
            77.0921061,
            28.5631834
          ],
          [
            77.0920942,
            28.5631478
          ],
          [
            77.0968536,
            28.5620546
          ],
          [
            77.0968585,
            28.5620704
          ],
          [
            77.0968636,
            28.5620866
          ],
          [
            77.0921061,
            28.5631834
          ]
        ]
      }
    },
    {
      "type": "Feature",
      "properties": {
        "natural": "water",
        "water": "stream"
      },
      "geometry": {
        "type": "LineString",
        "coordinates": [
          [
            77.0858347,
            28.56561
          ],
          [
            77.0858546,
            28.5656816
          ],
          [
            77.08682,
            28.565453
          ],
          [
            77.0869555,
            28.5653955
          ],
          [
            77.0869345,
            28.5653184
          ],
          [
            77.0867693,
            28.5653936
          ],
          [
            77.0858347,
            28.56561
          ]
        ]
      }
    },
    {
      "type": "Feature",
      "properties": {
        "waterway": "drain"
      },
      "geometry": {
        "type": "LineString",
        "coordinates": [
          [
            77.0860072,
            28.568437
          ],
          [
            77.0827923,
            28.5691943
          ],
          [
            77.0825901,
            28.5692419
          ],
          [
            77.0815104,
            28.569426
          ]
        ]
      }
    },
    {
      "type": "Feature",
      "properties": {
        "waterway": "drain"
      },
      "geometry": {
        "type": "LineString",
        "coordinates": [
          [
            77.0870012,
            28.5695316
          ],
          [
            77.0832536,
            28.5696147
          ],
          [
            77.0831901,
            28.5696101
          ],
          [
            77.0831246,
            28.5695928
          ],
          [
            77.0830867,
            28.5695713
          ],
          [
            77.0830525,
            28.5695437
          ],
          [
            77.0830268,
            28.5695109
          ]
        ]
      }
    },
    {
      "type": "Feature",
      "properties": {
        "waterway": "drain"
      },
      "geometry": {
        "type": "LineString",
        "coordinates": [
          [
            77.0828726,
            28.5693028
          ],
          [
            77.0827923,
            28.5691943
          ]
        ]
      }
    },
    {
      "type": "Feature",
      "properties": {
        "layer": "-1",
        "tunnel": "culvert",
        "waterway": "drain"
      },
      "geometry": {
        "type": "LineString",
        "coordinates": [
          [
            77.0830268,
            28.5695109
          ],
          [
            77.0828726,
            28.5693028
          ]
        ]
      }
    },
    {
      "type": "Feature",
      "properties": {
        "natural": "water",
        "water": "stream"
      },
      "geometry": {
        "type": "LineString",
        "coordinates": [
          [
            77.0830596,
            28.5694917
          ],
          [
            77.0829947,
            28.5695189
          ],
          [
            77.0830279,
            28.5695603
          ],
          [
            77.0830656,
            28.5695961
          ],
          [
            77.0831072,
            28.569616
          ],
          [
            77.0831559,
            28.5696313
          ],
          [
            77.0832224,
            28.5696425
          ],
          [
            77.0870513,
            28.5695638
          ],
          [
            77.087047,
            28.5694989
          ],
          [
            77.0832285,
            28.5695834
          ],
          [
            77.0831695,
            28.5695763
          ],
          [
            77.0831316,
            28.5695616
          ],
          [
            77.0830937,
            28.5695347
          ],
          [
            77.0830596,
            28.5694917
          ]
        ]
      }
    },
    {
      "type": "Feature",
      "properties": {
        "layer": "-1",
        "tunnel": "culvert",
        "waterway": "drain"
      },
      "geometry": {
        "type": "LineString",
        "coordinates": [
          [
            77.0867235,
            28.5682726
          ],
          [
            77.0860072,
            28.568437
          ]
        ]
      }
    },
    {
      "type": "Feature",
      "properties": {
        "waterway": "drain"
      },
      "geometry": {
        "type": "LineString",
        "coordinates": [
          [
            77.0963762,
            28.5683773
          ],
          [
            77.0903711,
            28.5685129
          ]
        ]
      }
    },
    {
      "type": "Feature",
      "properties": {
        "waterway": "drain"
      },
      "geometry": {
        "type": "LineString",
        "coordinates": [
          [
            77.0876645,
            28.5682108
          ],
          [
            77.0876227,
            28.5680663
          ]
        ]
      }
    },
    {
      "type": "Feature",
      "properties": {
        "layer": "-1",
        "tunnel": "culvert",
        "waterway": "drain"
      },
      "geometry": {
        "type": "LineString",
        "coordinates": [
          [
            77.0877103,
            28.5683696
          ],
          [
            77.0876645,
            28.5682108
          ]
        ]
      }
    },
    {
      "type": "Feature",
      "properties": {
        "waterway": "drain"
      },
      "geometry": {
        "type": "LineString",
        "coordinates": [
          [
            77.0895445,
            28.5685323
          ],
          [
            77.0880211,
            28.5685678
          ],
          [
            77.0879482,
            28.5685645
          ],
          [
            77.0878866,
            28.5685546
          ],
          [
            77.0878331,
            28.5685302
          ],
          [
            77.087792,
            28.5685013
          ],
          [
            77.0877498,
            28.5684652
          ],
          [
            77.0877231,
            28.5684137
          ],
          [
            77.0877103,
            28.5683696
          ]
        ]
      }
    },
    {
      "type": "Feature",
      "properties": {
        "layer": "-1",
        "tunnel": "culvert",
        "waterway": "drain"
      },
      "geometry": {
        "type": "LineString",
        "coordinates": [
          [
            77.0903711,
            28.5685129
          ],
          [
            77.0895445,
            28.5685323
          ]
        ]
      }
    },
    {
      "type": "Feature",
      "properties": {
        "waterway": "drain"
      },
      "geometry": {
        "type": "LineString",
        "coordinates": [
          [
            77.0911704,
            28.5694302
          ],
          [
            77.0901518,
            28.5694618
          ]
        ]
      }
    },
    {
      "type": "Feature",
      "properties": {
        "layer": "-1",
        "tunnel": "culvert",
        "waterway": "drain"
      },
      "geometry": {
        "type": "LineString",
        "coordinates": [
          [
            77.0901518,
            28.5694618
          ],
          [
            77.0894283,
            28.5694778
          ]
        ]
      }
    },
    {
      "type": "Feature",
      "properties": {
        "waterway": "drain"
      },
      "geometry": {
        "type": "LineString",
        "coordinates": [
          [
            77.0894283,
            28.5694778
          ],
          [
            77.089036,
            28.5694881
          ]
        ]
      }
    },
    {
      "type": "Feature",
      "properties": {
        "layer": "-1",
        "tunnel": "culvert",
        "waterway": "drain"
      },
      "geometry": {
        "type": "LineString",
        "coordinates": [
          [
            77.089036,
            28.5694881
          ],
          [
            77.0884052,
            28.5695046
          ]
        ]
      }
    },
    {
      "type": "Feature",
      "properties": {
        "waterway": "drain"
      },
      "geometry": {
        "type": "LineString",
        "coordinates": [
          [
            77.0884052,
            28.5695046
          ],
          [
            77.0879266,
            28.5695111
          ]
        ]
      }
    },
    {
      "type": "Feature",
      "properties": {
        "layer": "-1",
        "tunnel": "culvert",
        "waterway": "drain"
      },
      "geometry": {
        "type": "LineString",
        "coordinates": [
          [
            77.0879266,
            28.5695111
          ],
          [
            77.0870012,
            28.5695316
          ]
        ]
      }
    },
    {
      "type": "Feature",
      "properties": {
        "natural": "water",
        "water": "stream"
      },
      "geometry": {
        "type": "LineString",
        "coordinates": [
          [
            77.0912129,
            28.5694707
          ],
          [
            77.0912104,
            28.5693935
          ],
          [
            77.0901215,
            28.5694256
          ],
          [
            77.0901252,
            28.5695007
          ],
          [
            77.0912129,
            28.5694707
          ]
        ]
      }
    },
    {
      "type": "Feature",
      "properties": {
        "natural": "water",
        "water": "stream"
      },
      "geometry": {
        "type": "LineString",
        "coordinates": [
          [
            77.0894429,
            28.5695021
          ],
          [
            77.0894424,
            28.5694557
          ],
          [
            77.0890205,
            28.5694646
          ],
          [
            77.0890205,
            28.5695117
          ],
          [
            77.0894429,
            28.5695021
          ]
        ]
      }
    },
    {
      "type": "Feature",
      "properties": {
        "natural": "water",
        "water": "stream"
      },
      "geometry": {
        "type": "LineString",
        "coordinates": [
          [
            77.0884261,
            28.5695427
          ],
          [
            77.0884261,
            28.5694913
          ],
          [
            77.0879073,
            28.5694988
          ],
          [
            77.0879134,
            28.5695534
          ],
          [
            77.0884261,
            28.5695427
          ]
        ]
      }
    },
    {
      "type": "Feature",
      "properties": {
        "waterway": "drain"
      },
      "geometry": {
        "type": "LineString",
        "coordinates": [
          [
            77.0985897,
            28.5683274
          ],
          [
            77.0981465,
            28.5683374
          ]
        ]
      }
    },
    {
      "type": "Feature",
      "properties": {
        "layer": "-1",
        "tunnel": "culvert",
        "waterway": "drain"
      },
      "geometry": {
        "type": "LineString",
        "coordinates": [
          [
            77.0981465,
            28.5683374
          ],
          [
            77.0963762,
            28.5683773
          ]
        ]
      }
    },
    {
      "type": "Feature",
      "properties": {
        "waterway": "drain"
      },
      "geometry": {
        "type": "LineString",
        "coordinates": [
          [
            77.0883411,
            28.5679015
          ],
          [
            77.0876227,
            28.5680663
          ],
          [
            77.0867235,
            28.5682726
          ]
        ]
      }
    },
    {
      "type": "Feature",
      "properties": {
        "layer": "-1",
        "tunnel": "culvert",
        "waterway": "drain"
      },
      "geometry": {
        "type": "LineString",
        "coordinates": [
          [
            77.0885595,
            28.5678492
          ],
          [
            77.0883411,
            28.5679015
          ]
        ]
      }
    },
    {
      "type": "Feature",
      "properties": {
        "natural": "water",
        "water": "stream"
      },
      "geometry": {
        "type": "LineString",
        "coordinates": [
          [
            77.0877228,
            28.5683335
          ],
          [
            77.0876795,
            28.5683442
          ],
          [
            77.0876995,
            28.5684141
          ],
          [
            77.0877272,
            28.5684696
          ],
          [
            77.0877566,
            28.568513
          ],
          [
            77.0877947,
            28.5685472
          ],
          [
            77.087844,
            28.5685768
          ],
          [
            77.0878994,
            28.5685951
          ],
          [
            77.0879609,
            28.5686027
          ],
          [
            77.0880431,
            28.5686027
          ],
          [
            77.0895607,
            28.5685601
          ],
          [
            77.0895599,
            28.5685046
          ],
          [
            77.0880293,
            28.5685403
          ],
          [
            77.0879592,
            28.5685381
          ],
          [
            77.0879038,
            28.568532
          ],
          [
            77.0878544,
            28.5685153
          ],
          [
            77.0878172,
            28.5684902
          ],
          [
            77.08778,
            28.5684567
          ],
          [
            77.0877462,
            28.5684096
          ],
          [
            77.0877228,
            28.5683335
          ]
        ]
      }
    },
    {
      "type": "Feature",
      "properties": {
        "natural": "water",
        "water": "stream"
      },
      "geometry": {
        "type": "LineString",
        "coordinates": [
          [
            77.0867002,
            28.5682388
          ],
          [
            77.0867258,
            28.5683214
          ],
          [
            77.087595,
            28.5681241
          ],
          [
            77.0876439,
            28.5682249
          ],
          [
            77.0876927,
            28.5682131
          ],
          [
            77.0876719,
            28.5681059
          ],
          [
            77.0883739,
            28.5679343
          ],
          [
            77.0883543,
            28.5678582
          ],
          [
            77.0867002,
            28.5682388
          ]
        ]
      }
    },
    {
      "type": "Feature",
      "properties": {
        "natural": "water",
        "water": "stream"
      },
      "geometry": {
        "type": "LineString",
        "coordinates": [
          [
            77.088515,
            28.567819
          ],
          [
            77.0885344,
            28.5679007
          ],
          [
            77.0891201,
            28.567766
          ],
          [
            77.0892182,
            28.5677292
          ],
          [
            77.0892836,
            28.5676897
          ],
          [
            77.0893439,
            28.5676305
          ],
          [
            77.0893858,
            28.5675766
          ],
          [
            77.0895207,
            28.5673755
          ],
          [
            77.0895861,
            28.5673208
          ],
          [
            77.0896424,
            28.5672867
          ],
          [
            77.0897139,
            28.5672615
          ],
          [
            77.0899725,
            28.5672005
          ],
          [
            77.0899531,
            28.5671314
          ],
          [
            77.0896955,
            28.5671951
          ],
          [
            77.0896199,
            28.5672229
          ],
          [
            77.0895412,
            28.5672678
          ],
          [
            77.0894717,
            28.5673136
          ],
          [
            77.0894226,
            28.5673755
          ],
          [
            77.0893,
            28.5675604
          ],
          [
            77.089256,
            28.5676062
          ],
          [
            77.0892069,
            28.5676466
          ],
          [
            77.0891609,
            28.5676727
          ],
          [
            77.0890771,
            28.5677005
          ],
          [
            77.088515,
            28.567819
          ]
        ]
      }
    },
    {
      "type": "Feature",
      "properties": {
        "waterway": "drain"
      },
      "geometry": {
        "type": "LineString",
        "coordinates": [
          [
            77.0899433,
            28.5671711
          ],
          [
            77.0897305,
            28.5672221
          ],
          [
            77.0896298,
            28.5672548
          ],
          [
            77.0895311,
            28.5673126
          ],
          [
            77.0894839,
            28.5673656
          ],
          [
            77.0893584,
            28.5675566
          ],
          [
            77.0892971,
            28.5676258
          ],
          [
            77.0892117,
            28.5676835
          ],
          [
            77.0891067,
            28.5677258
          ],
          [
            77.0885595,
            28.5678492
          ]
        ]
      }
    },
    {
      "type": "Feature",
      "properties": {
        "layer": "-1",
        "tunnel": "culvert",
        "waterway": "drain"
      },
      "geometry": {
        "type": "LineString",
        "coordinates": [
          [
            77.0907234,
            28.56699
          ],
          [
            77.0899433,
            28.5671711
          ]
        ]
      }
    },
    {
      "type": "Feature",
      "properties": {
        "natural": "water",
        "water": "stream"
      },
      "geometry": {
        "type": "LineString",
        "coordinates": [
          [
            77.0903619,
            28.5685437
          ],
          [
            77.0903597,
            28.5684788
          ],
          [
            77.0963993,
            28.5683423
          ],
          [
            77.0964044,
            28.5684114
          ],
          [
            77.0903619,
            28.5685437
          ]
        ]
      }
    },
    {
      "type": "Feature",
      "properties": {
        "natural": "water",
        "water": "stream"
      },
      "geometry": {
        "type": "LineString",
        "coordinates": [
          [
            77.0907026,
            28.5670443
          ],
          [
            77.0906667,
            28.5669496
          ],
          [
            77.0955771,
            28.565827
          ],
          [
            77.0956045,
            28.5659017
          ],
          [
            77.0907026,
            28.5670443
          ]
        ]
      }
    },
    {
      "type": "Feature",
      "properties": {
        "waterway": "drain"
      },
      "geometry": {
        "type": "LineString",
        "coordinates": [
          [
            77.0979402,
            28.5653293
          ],
          [
            77.0964488,
            28.5656685
          ]
        ]
      }
    },
    {
      "type": "Feature",
      "properties": {
        "layer": "-1",
        "tunnel": "culvert",
        "waterway": "drain"
      },
      "geometry": {
        "type": "LineString",
        "coordinates": [
          [
            77.0964488,
            28.5656685
          ],
          [
            77.0955513,
            28.5658691
          ]
        ]
      }
    },
    {
      "type": "Feature",
      "properties": {
        "natural": "water",
        "water": "stream"
      },
      "geometry": {
        "type": "LineString",
        "coordinates": [
          [
            77.0979558,
            28.5653509
          ],
          [
            77.0979429,
            28.5653018
          ],
          [
            77.096422,
            28.5656518
          ],
          [
            77.0964349,
            28.5657001
          ],
          [
            77.0979558,
            28.5653509
          ]
        ]
      }
    },
    {
      "type": "Feature",
      "properties": {
        "waterway": "drain"
      },
      "geometry": {
        "type": "LineString",
        "coordinates": [
          [
            77.099876,
            28.5651137
          ],
          [
            77.0998294,
            28.5649749
          ],
          [
            77.0998095,
            28.5649436
          ],
          [
            77.0997804,
            28.564926
          ],
          [
            77.0997316,
            28.5649174
          ]
        ]
      }
    },
    {
      "type": "Feature",
      "properties": {
        "layer": "-1",
        "tunnel": "culvert",
        "waterway": "drain"
      },
      "geometry": {
        "type": "LineString",
        "coordinates": [
          [
            77.1000114,
            28.5655925
          ],
          [
            77.099876,
            28.5651137
          ]
        ]
      }
    },
    {
      "type": "Feature",
      "properties": {
        "waterway": "drain"
      },
      "geometry": {
        "type": "LineString",
        "coordinates": [
          [
            77.0985075,
            28.5661294
          ],
          [
            77.0999305,
            28.5657974
          ],
          [
            77.0999742,
            28.5657793
          ],
          [
            77.1000082,
            28.5657537
          ],
          [
            77.100024,
            28.5657217
          ],
          [
            77.1000264,
            28.5656897
          ],
          [
            77.1000268,
            28.5656483
          ]
        ]
      }
    },
    {
      "type": "Feature",
      "properties": {
        "natural": "water",
        "water": "stream"
      },
      "geometry": {
        "type": "LineString",
        "coordinates": [
          [
            77.0991902,
            28.5650022
          ],
          [
            77.0992183,
            28.5650763
          ],
          [
            77.0997286,
            28.5649588
          ],
          [
            77.0997684,
            28.5649732
          ],
          [
            77.0997937,
            28.5650037
          ],
          [
            77.0998412,
            28.565137
          ],
          [
            77.0999141,
            28.5651193
          ],
          [
            77.0998717,
            28.5649717
          ],
          [
            77.099848,
            28.5649313
          ],
          [
            77.1054959,
            28.5636311
          ],
          [
            77.1054742,
            28.5635593
          ],
          [
            77.0991902,
            28.5650022
          ]
        ]
      }
    },
    {
      "type": "Feature",
      "properties": {
        "waterway": "drain"
      },
      "geometry": {
        "type": "LineString",
        "coordinates": [
          [
            77.1054557,
            28.5636008
          ],
          [
            77.0997316,
            28.5649174
          ],
          [
            77.099221,
            28.5650306
          ]
        ]
      }
    },
    {
      "type": "Feature",
      "properties": {
        "waterway": "drain"
      },
      "geometry": {
        "type": "LineString",
        "coordinates": [
          [
            77.107918,
            28.5714165
          ],
          [
            77.1071593,
            28.5714351
          ],
          [
            77.1068406,
            28.5714831
          ],
          [
            77.0937479,
            28.571743
          ]
        ]
      }
    },
    {
      "type": "Feature",
      "properties": {
        "layer": "-1",
        "tunnel": "culvert",
        "waterway": "drain"
      },
      "geometry": {
        "type": "LineString",
        "coordinates": [
          [
            77.0937479,
            28.571743
          ],
          [
            77.0933275,
            28.5717537
          ]
        ]
      }
    },
    {
      "type": "Feature",
      "properties": {
        "waterway": "drain"
      },
      "geometry": {
        "type": "LineString",
        "coordinates": [
          [
            77.0933275,
            28.5717537
          ],
          [
            77.093103,
            28.5717555
          ],
          [
            77.0912844,
            28.5719775
          ],
          [
            77.0879922,
            28.5725301
          ],
          [
            77.0879473,
            28.5725283
          ]
        ]
      }
    },
    {
      "type": "Feature",
      "properties": {
        "layer": "-1",
        "tunnel": "culvert",
        "waterway": "drain"
      },
      "geometry": {
        "type": "LineString",
        "coordinates": [
          [
            77.0879473,
            28.5725283
          ],
          [
            77.0878587,
            28.5725144
          ]
        ]
      }
    },
    {
      "type": "Feature",
      "properties": {
        "waterway": "drain"
      },
      "geometry": {
        "type": "LineString",
        "coordinates": [
          [
            77.0878587,
            28.5725144
          ],
          [
            77.0863764,
            28.5722765
          ]
        ]
      }
    },
    {
      "type": "Feature",
      "properties": {
        "layer": "-1",
        "tunnel": "culvert",
        "waterway": "drain"
      },
      "geometry": {
        "type": "LineString",
        "coordinates": [
          [
            77.0863764,
            28.5722765
          ],
          [
            77.0862306,
            28.5722514
          ]
        ]
      }
    },
    {
      "type": "Feature",
      "properties": {
        "waterway": "drain"
      },
      "geometry": {
        "type": "LineString",
        "coordinates": [
          [
            77.0913091,
            28.5599216
          ],
          [
            77.091401,
            28.5602504
          ]
        ]
      }
    },
    {
      "type": "Feature",
      "properties": {
        "layer": "-1",
        "tunnel": "culvert",
        "waterway": "drain"
      },
      "geometry": {
        "type": "LineString",
        "coordinates": [
          [
            77.091401,
            28.5602504
          ],
          [
            77.0914312,
            28.5603587
          ]
        ]
      }
    },
    {
      "type": "Feature",
      "properties": {
        "intermittent": "no",
        "name": "DDA Water Body and Woodland",
        "natural": "water",
        "water": "pond"
      },
      "geometry": {
        "type": "LineString",
        "coordinates": [
          [
            77.0514466,
            28.567921
          ],
          [
            77.0514193,
            28.5677831
          ],
          [
            77.0515012,
            28.5676752
          ],
          [
            77.0516378,
            28.5676452
          ],
          [
            77.0516992,
            28.5677051
          ],
          [
            77.0517333,
            28.5677831
          ],
          [
            77.0517607,
            28.5678251
          ],
          [
            77.0518631,
            28.5678551
          ],
          [
            77.0519382,
            28.5678191
          ],
          [
            77.051986,
            28.5677231
          ],
          [
            77.0520611,
            28.5676752
          ],
          [
            77.0522249,
            28.5676392
          ],
          [
            77.0523683,
            28.5676512
          ],
          [
            77.052539,
            28.5677351
          ],
          [
            77.0526073,
            28.5678431
          ],
          [
            77.0525527,
            28.567969
          ],
          [
            77.0524639,
            28.5680949
          ],
          [
            77.0522591,
            28.5681909
          ],
          [
            77.052102,
            28.5682268
          ],
          [
            77.0519245,
            28.5682268
          ],
          [
            77.0516992,
            28.5681729
          ],
          [
            77.0516924,
            28.5680829
          ],
          [
            77.0516856,
            28.567951
          ],
          [
            77.0515763,
            28.567921
          ],
          [
            77.0514466,
            28.567921
          ]
        ]
      }
    },
    {
      "type": "Feature",
      "properties": {
        "natural": "water",
        "water": "pond"
      },
      "geometry": {
        "type": "LineString",
        "coordinates": [
          [
            77.0890806,
            28.5972126
          ],
          [
            77.0892475,
            28.5970752
          ],
          [
            77.0893832,
            28.5971119
          ],
          [
            77.0897276,
            28.596837
          ],
          [
            77.0900406,
            28.5969927
          ],
          [
            77.0902076,
            28.5971943
          ],
          [
            77.0902389,
            28.5973867
          ],
          [
            77.0900511,
            28.5975883
          ],
          [
            77.089738,
            28.5976433
          ],
          [
            77.0895084,
            28.5976616
          ],
          [
            77.0893101,
            28.59746
          ],
          [
            77.0890806,
            28.5972126
          ]
        ]
      }
    },
    {
      "type": "Feature",
      "properties": {
        "waterway": "canal"
      },
      "geometry": {
        "type": "LineString",
        "coordinates": [
          [
            77.0739946,
            28.5790362
          ],
          [
            77.0726746,
            28.5773802
          ],
          [
            77.0723832,
            28.5775759
          ],
          [
            77.0720927,
            28.5772366
          ]
        ]
      }
    },
    {
      "type": "Feature",
      "properties": {
        "layer": "-1",
        "tunnel": "culvert",
        "waterway": "canal"
      },
      "geometry": {
        "type": "LineString",
        "coordinates": [
          [
            77.0720434,
            28.577179
          ],
          [
            77.0719779,
            28.5771024
          ]
        ]
      }
    },
    {
      "type": "Feature",
      "properties": {
        "layer": "-1",
        "tunnel": "culvert",
        "waterway": "canal"
      },
      "geometry": {
        "type": "LineString",
        "coordinates": [
          [
            77.0720927,
            28.5772366
          ],
          [
            77.0720434,
            28.577179
          ]
        ]
      }
    },
    {
      "type": "Feature",
      "properties": {
        "name": "Ramphal Chowk Johar",
        "natural": "water",
        "water": "pond"
      },
      "geometry": {
        "type": "LineString",
        "coordinates": [
          [
            77.0724557,
            28.5862546
          ],
          [
            77.0725048,
            28.5863092
          ],
          [
            77.072553,
            28.5863617
          ],
          [
            77.0726136,
            28.5863962
          ],
          [
            77.07267,
            28.5864206
          ],
          [
            77.0727453,
            28.5864493
          ],
          [
            77.0727764,
            28.5863926
          ],
          [
            77.0728042,
            28.5863085
          ],
          [
            77.0728296,
            28.5862302
          ],
          [
            77.0728533,
            28.5861447
          ],
          [
            77.0728492,
            28.5860679
          ],
          [
            77.0728255,
            28.5860319
          ],
          [
            77.0727739,
            28.5860075
          ],
          [
            77.0727126,
            28.5860046
          ],
          [
            77.0726766,
            28.586001
          ],
          [
            77.0726021,
            28.5859795
          ],
          [
            77.0725367,
            28.5859673
          ],
          [
            77.0724876,
            28.5859687
          ],
          [
            77.0724753,
            28.5860212
          ],
          [
            77.0724581,
            28.5860865
          ],
          [
            77.0724238,
            28.5861347
          ],
          [
            77.0724352,
            28.5861964
          ],
          [
            77.0724557,
            28.5862546
          ]
        ]
      }
    },
    {
      "type": "Feature",
      "properties": {
        "waterway": "drain"
      },
      "geometry": {
        "type": "LineString",
        "coordinates": [
          [
            77.1025568,
            28.5677996
          ],
          [
            77.10257,
            28.5680406
          ],
          [
            77.1025678,
            28.5680831
          ],
          [
            77.102548,
            28.5681447
          ],
          [
            77.1025238,
            28.5681719
          ],
          [
            77.102458,
            28.5682238
          ],
          [
            77.1024097,
            28.5682527
          ],
          [
            77.1023439,
            28.5682701
          ],
          [
            77.1022714,
            28.568272
          ],
          [
            77.0993262,
            28.5683343
          ]
        ]
      }
    },
    {
      "type": "Feature",
      "properties": {
        "waterway": "drain"
      },
      "geometry": {
        "type": "LineString",
        "coordinates": [
          [
            77.1095816,
            28.5690083
          ],
          [
            77.0996197,
            28.5692342
          ]
        ]
      }
    },
    {
      "type": "Feature",
      "properties": {
        "waterway": "drain"
      },
      "geometry": {
        "type": "LineString",
        "coordinates": [
          [
            77.0974002,
            28.5692851
          ],
          [
            77.0954316,
            28.5693251
          ]
        ]
      }
    },
    {
      "type": "Feature",
      "properties": {
        "layer": "-1",
        "tunnel": "culvert",
        "waterway": "drain"
      },
      "geometry": {
        "type": "LineString",
        "coordinates": [
          [
            77.0981399,
            28.5692726
          ],
          [
            77.0974002,
            28.5692851
          ]
        ]
      }
    },
    {
      "type": "Feature",
      "properties": {
        "waterway": "drain"
      },
      "geometry": {
        "type": "LineString",
        "coordinates": [
          [
            77.0992824,
            28.5692402
          ],
          [
            77.0981399,
            28.5692726
          ]
        ]
      }
    },
    {
      "type": "Feature",
      "properties": {
        "layer": "-1",
        "tunnel": "culvert",
        "waterway": "drain"
      },
      "geometry": {
        "type": "LineString",
        "coordinates": [
          [
            77.0996197,
            28.5692342
          ],
          [
            77.0992824,
            28.5692402
          ]
        ]
      }
    },
    {
      "type": "Feature",
      "properties": {
        "waterway": "drain"
      },
      "geometry": {
        "type": "LineString",
        "coordinates": [
          [
            77.0940038,
            28.5620003
          ],
          [
            77.0964792,
            28.5614303
          ]
        ]
      }
    },
    {
      "type": "Feature",
      "properties": {
        "layer": "-1",
        "tunnel": "culvert",
        "waterway": "drain"
      },
      "geometry": {
        "type": "LineString",
        "coordinates": [
          [
            77.0938939,
            28.5620256
          ],
          [
            77.0940038,
            28.5620003
          ]
        ]
      }
    },
    {
      "type": "Feature",
      "properties": {
        "waterway": "drain"
      },
      "geometry": {
        "type": "LineString",
        "coordinates": [
          [
            77.1052091,
            28.5611617
          ],
          [
            77.0997437,
            28.5624209
          ]
        ]
      }
    },
    {
      "type": "Feature",
      "properties": {
        "waterway": "drain"
      },
      "geometry": {
        "type": "LineString",
        "coordinates": [
          [
            77.1035582,
            28.5605681
          ],
          [
            77.0983718,
            28.5617524
          ]
        ]
      }
    },
    {
      "type": "Feature",
      "properties": {
        "waterway": "drain"
      },
      "geometry": {
        "type": "LineString",
        "coordinates": [
          [
            77.0982229,
            28.5617861
          ],
          [
            77.0978786,
            28.5618685
          ]
        ]
      }
    },
    {
      "type": "Feature",
      "properties": {
        "layer": "-1",
        "tunnel": "culvert",
        "waterway": "drain"
      },
      "geometry": {
        "type": "LineString",
        "coordinates": [
          [
            77.0974843,
            28.5619569
          ],
          [
            77.0968585,
            28.5620704
          ]
        ]
      }
    },
    {
      "type": "Feature",
      "properties": {
        "waterway": "drain"
      },
      "geometry": {
        "type": "LineString",
        "coordinates": [
          [
            77.0977249,
            28.5613669
          ],
          [
            77.0978786,
            28.5618685
          ],
          [
            77.0974843,
            28.5619569
          ]
        ]
      }
    },
    {
      "type": "Feature",
      "properties": {
        "layer": "-1",
        "tunnel": "culvert",
        "waterway": "drain"
      },
      "geometry": {
        "type": "LineString",
        "coordinates": [
          [
            77.0964792,
            28.5614303
          ],
          [
            77.0965758,
            28.5614081
          ]
        ]
      }
    },
    {
      "type": "Feature",
      "properties": {
        "waterway": "drain"
      },
      "geometry": {
        "type": "LineString",
        "coordinates": [
          [
            77.0919617,
            28.5624704
          ],
          [
            77.0938939,
            28.5620256
          ]
        ]
      }
    },
    {
      "type": "Feature",
      "properties": {
        "waterway": "drain"
      },
      "geometry": {
        "type": "LineString",
        "coordinates": [
          [
            77.0965758,
            28.5614081
          ],
          [
            77.0966274,
            28.5613962
          ],
          [
            77.0964906,
            28.5609133
          ]
        ]
      }
    },
    {
      "type": "Feature",
      "properties": {
        "waterway": "drain"
      },
      "geometry": {
        "type": "LineString",
        "coordinates": [
          [
            77.0916934,
            28.5613597
          ],
          [
            77.0916867,
            28.5613173
          ],
          [
            77.0917055,
            28.5612949
          ],
          [
            77.095537,
            28.5604168
          ],
          [
            77.0961332,
            28.5603438
          ]
        ]
      }
    }
  ]
}