{
  "type": "FeatureCollection",
  "name": "Dwarka_Mor_Najafgarh_Catchment_Boundary",
  "crs": {
    "type": "name",
    "properties": {
      "name": "urn:ogc:def:crs:OGC:1.3:CRS84"
    }
  },
  "features": [
    {
      "type": "Feature",
      "properties": {
        "catchment_name": "Dwarka Mor Catchment & Najafgarh Drain Basin",
        "district": "South West Delhi",
        "state": "Delhi",
        "country": "India",
        "pilot_code": "DELHI-DWK-01",
        "critical_junction": "Dwarka Mor Metro Crossing (28.6186° N, 77.0319° E)",
        "coverage_scope": "Approximate prototype pilot bounds; not official service coverage.",
        "data_quality": "MANUALLY_DEFINED_PROTOTYPE_BOUNDARY"
      },
      "geometry": {
        "type": "Polygon",
        "coordinates": [
          [
            [
              77.015,
              28.628
            ],
            [
              77.05,
              28.628
            ],
            [
              77.05,
              28.59
            ],
            [
              77.015,
              28.59
            ],
            [
              77.015,
              28.628
            ]
          ]
        ]
      }
    }
  ]
}
